IRIDIUM 112             
1 41925U 17003J   24240.10011753  .00000686  00000+0  23805-3 0  9992
2 41925  86.4014   3.7255 0002465  92.0282 268.1196 14.34216309398835
IRIDIUM 111             
1 41926U 17003K   24240.08743118  .00000717  00000+0  24885-3 0  9991
2 41926  86.4014   3.7866 0002302  85.8472 274.2987 14.34216036398850
IRIDIUM 113             
1 42803U 17039A   24239.92786177  .00000049  00000+0  10536-4 0  9995
2 42803  86.3938 237.6085 0002423  84.6563 275.4909 14.34217651376691
IRIDIUM 123             
1 42804U 17039B   24239.82980837  .00000567  00000+0  19521-3 0  9991
2 42804  86.3917 269.1559 0002184  87.8610 272.2835 14.34222065375447
IRIDIUM 120             
1 42805U 17039C   24239.92151878  .00000343  00000+0  11556-3 0  9990
2 42805  86.3927 237.4791 0002240  89.5233 270.6219 14.34218974376687
IRIDIUM 115             
1 42806U 17039D   24239.92092814  .00000431  00000+0  12215-3 0  9996
2 42806  86.4466 237.5141 0002533  82.8884 277.2605 14.43274344379172
IRIDIUM 118             
1 42807U 17039E   24240.14058997  .00000314  00000+0  10499-3 0  9999
2 42807  86.3919 269.0276 0002221 100.5475 259.5972 14.34217633375491
IRIDIUM 117             
1 42808U 17039F   24239.81077245  .00000417  00000+0  14168-3 0  9990
2 42808  86.3915 269.1286 0002320  88.4206 271.7256 14.34220432375465
